EUTELSAT 21B            
1 38992U 12062B   25229.94211454  .00000120  00000+0  00000+0 0  9993
2 38992   0.0694   9.4579 0003129 132.2028 185.6428  1.00273340 46788
EUTELSAT 70B            
1 39020U 12069A   25229.88237762 -.00000053  00000+0  00000+0 0  9992
2 39020   0.0653  11.5342 0003564 135.8996 207.2066  1.00272023 46465
EUTELSAT 117 WEST A     
1 39122U 13012A   25229.76433669 -.00000022  00000+0  00000+0 0  9991
2 39122   0.0143  75.0224 0002824  84.8584 324.8437  1.00270919 45391
EUTELSAT 7B             
1 39163U 13022A   25229.90322497  .00000038  00000+0  00000+0 0  9995
2 39163   0.0717 338.5376 0001909  67.5306 252.5853  1.00270960 44913
EXPRESS-AT1             
1 39612U 14010A   25230.18944022  .00000068  00000+0  00000+0 0  9991
2 39612   0.0064 127.5730 0000375 223.9106  99.5083  1.00270776 42017
EXPRESS-AT2             
1 39613U 14010B   25230.46614608 -.00000293  00000+0  00000+0 0  9998
2 39613   0.0308 261.8003 0000214  83.9760 288.9424  1.00272828 41849
EUTELSAT 3B             
1 39773U 14030A   25229.90877991  .00000010  00000+0  00000+0 0  9996
2 39773   0.0647  11.5022 0004105 141.7271 143.5369  1.00272188 41029
EUTELSAT 115 WEST B     
1 40425U 15010B   25230.41502918 -.00000036  00000+0  00000+0 0  9992
2 40425   0.0042   3.4859 0000206 298.1615  59.8672  1.00270123 38398
